{
  "type": "FeatureCollection",
  "features": [
    {
      "type": "Feature",
      "properties": {
        "norad_id": 65731,
        "name": "1998-067XK",
        "group": "stations",
        "lat": -51.31923745974241,
        "lon": 64.949799323571,
        "alt_km": 374.58390218166005,
        "timestamp": "2025-12-10T20:49:51.360652+00:00",
        "meta_object_name": "1998-067XK",
        "meta_object_id": "1998-067XK",
        "meta_epoch": "2025-12-10T11:59:54.530016",
        "meta_mean_motion": 15.65134348,
        "meta_eccentricity": 0.00051808,
        "meta_inclination": 51.6281,
        "meta_ra_of_asc_node": 148.5918,
        "meta_arg_of_pericenter": 231.8122,
        "meta_mean_anomaly": 128.2407,
        "meta_ephemeris_type": 0,
        "meta_classification_type": "U",
        "meta_norad_cat_id": 65731,
        "meta_element_set_no": 999,
        "meta_rev_at_epoch": 1279,
        "meta_bstar": 0.0012258975,
        "meta_mean_motion_dot": 0.00124892,
        "meta_mean_motion_ddot": 0,
        "tle_line1": "1 65731U 98067XK  25344.49993669  .00124892  00000+0  12259-2 0  9991",
        "tle_line2": "2 65731  51.6281 148.5918 0005180 231.8122 128.2407 15.65134348 12799"
      },
      "geometry": {
        "type": "Point",
        "coordinates": [
          64.949799323571,
          -51.31923745974241
        ]
      }
    },
    {
      "type": "Feature",
      "properties": {
        "norad_id": 65732,
        "name": "RSP-03",
        "group": "stations",
        "lat": -36.041295279240906,
        "lon": 1.2747598237337352,
        "alt_km": 364.8639954554437,
        "timestamp": "2025-12-10T20:49:51.360663+00:00",
        "meta_object_name": "RSP-03",
        "meta_object_id": "1998-067XL",
        "meta_epoch": "2025-12-10T12:12:40.904064",
        "meta_mean_motion": 15.678372,
        "meta_eccentricity": 0.00058956,
        "meta_inclination": 51.6265,
        "meta_ra_of_asc_node": 147.8923,
        "meta_arg_of_pericenter": 236.0858,
        "meta_mean_anomaly": 123.9578,
        "meta_ephemeris_type": 0,
        "meta_classification_type": "U",
        "meta_norad_cat_id": 65732,
        "meta_element_set_no": 999,
        "meta_rev_at_epoch": 1281,
        "meta_bstar": 0.001395491,
        "meta_mean_motion_dot": 0.00159362,
        "meta_mean_motion_ddot": 0,
        "tle_line1": "1 65732U 98067XL  25344.50880676  .00159362  00000+0  13955-2 0  9991",
        "tle_line2": "2 65732  51.6265 147.8923 0005895 236.0858 123.9578 15.67837200 12819"
      },
      "geometry": {
        "type": "Point",
        "coordinates": [
          1.2747598237337352,
          -36.041295279240906
        ]
      }
    },
    {
      "type": "Feature",
      "properties": {
        "norad_id": 65733,
        "name": "GHS-01",
        "group": "stations",
        "lat": 49.09951251181001,
        "lon": -101.34894157190264,
        "alt_km": 345.9331447831246,
        "timestamp": "2025-12-10T20:49:51.360673+00:00",
        "meta_object_name": "GHS-01",
        "meta_object_id": "1998-067XM",
        "meta_epoch": "2025-12-09T18:28:18.827904",
        "meta_mean_motion": 15.73188946,
        "meta_eccentricity": 0.00069378,
        "meta_inclination": 51.6282,
        "meta_ra_of_asc_node": 150.4557,
        "meta_arg_of_pericenter": 260.0742,
        "meta_mean_anomaly": 99.9474,
        "meta_ephemeris_type": 0,
        "meta_classification_type": "U",
        "meta_norad_cat_id": 65733,
        "meta_element_set_no": 999,
        "meta_rev_at_epoch": 1271,
        "meta_bstar": 0.0015641531,
        "meta_mean_motion_dot": 0.00225395,
        "meta_mean_motion_ddot": 0,
        "tle_line1": "1 65733U 98067XM  25343.76966236  .00225395  00000+0  15642-2 0  9991",
        "tle_line2": "2 65733  51.6282 150.4557 0006937 260.0742  99.9474 15.73188946 12718"
      },
      "geometry": {
        "type": "Point",
        "coordinates": [
          -101.34894157190264,
          49.09951251181001
        ]
      }
    },
    {
      "type": "Feature",
      "properties": {
        "norad_id": 65941,
        "name": "YOTSUBA-KULOVER",
        "group": "stations",
        "lat": 50.063963553843756,
        "lon": -139.4560637948844,
        "alt_km": 384.3401368382574,
        "timestamp": "2025-12-10T20:49:51.360683+00:00",
        "meta_object_name": "YOTSUBA-KULOVER",
        "meta_object_id": "1998-067XN",
        "meta_epoch": "2025-12-10T11:16:03.070272",
        "meta_mean_motion": 15.59021065,
        "meta_eccentricity": 0.00015507,
        "meta_inclination": 51.6286,
        "meta_ra_of_asc_node": 151.3857,
        "meta_arg_of_pericenter": 232.2961,
        "meta_mean_anomaly": 127.7891,
        "meta_ephemeris_type": 0,
        "meta_classification_type": "U",
        "meta_norad_cat_id": 65941,
        "meta_element_set_no": 999,
        "meta_rev_at_epoch": 950,
        "meta_bstar": 0.0011321165,
        "meta_mean_motion_dot": 0.00090413,
        "meta_mean_motion_ddot": 0,
        "tle_line1": "1 65941U 98067XN  25344.46947998  .00090413  00000+0  11321-2 0  9995",
        "tle_line2": "2 65941  51.6286 151.3857 0001550 232.2961 127.7891 15.59021065  9504"
      },
      "geometry": {
        "type": "Point",
        "coordinates": [
          -139.4560637948844,
          50.063963553843756
        ]
      }
    },
    {
      "type": "Feature",
      "properties": {
        "norad_id": 65942,
        "name": "BOTAN",
        "group": "stations",
        "lat": 18.643095588839806,
        "lon": 164.25092480817904,
        "alt_km": 381.15448834959534,
        "timestamp": "2025-12-10T20:49:51.360693+00:00",
        "meta_object_name": "BOTAN",
        "meta_object_id": "1998-067XP",
        "meta_epoch": "2025-12-10T11:31:01.401312",
        "meta_mean_motion": 15.62212709,
        "meta_eccentricity": 0.00033822,
        "meta_inclination": 51.6281,
        "meta_ra_of_asc_node": 150.7055,
        "meta_arg_of_pericenter": 220.3642,
        "meta_mean_anomaly": 139.7102,
        "meta_ephemeris_type": 0,
        "meta_classification_type": "U",
        "meta_norad_cat_id": 65942,
        "meta_element_set_no": 999,
        "meta_rev_at_epoch": 951,
        "meta_bstar": 0.0015087728,
        "meta_mean_motion_dot": 0.00137252,
        "meta_mean_motion_ddot": 0,
        "tle_line1": "1 65942U 98067XP  25344.47987733  .00137252  00000+0  15088-2 0  9995",
        "tle_line2": "2 65942  51.6281 150.7055 0003382 220.3642 139.7102 15.62212709  9512"
      },
      "geometry": {
        "type": "Point",
        "coordinates": [
          164.25092480817904,
          18.643095588839806
        ]
      }
    },
    {
      "type": "Feature",
      "properties": {
        "norad_id": 65943,
        "name": "E-KAGAKU-1",
        "group": "stations",
        "lat": 50.06516447956502,
        "lon": -139.4623818348311,
        "alt_km": 384.8258909840124,
        "timestamp": "2025-12-10T20:49:51.360702+00:00",
        "meta_object_name": "E-KAGAKU-1",
        "meta_object_id": "1998-067XQ",
        "meta_epoch": "2025-12-10T06:39:08.237952",
        "meta_mean_motion": 15.5900432,
        "meta_eccentricity": 0.00052507,
        "meta_inclination": 51.6298,
        "meta_ra_of_asc_node": 152.3458,
        "meta_arg_of_pericenter": 191.2269,
        "meta_mean_anomaly": 168.8608,
        "meta_ephemeris_type": 0,
        "meta_classification_type": "U",
        "meta_norad_cat_id": 65943,
        "meta_element_set_no": 999,
        "meta_rev_at_epoch": 947,
        "meta_bstar": 0.0012588803,
        "meta_mean_motion_dot": 0.00100705,
        "meta_mean_motion_ddot": 0,
        "tle_line1": "1 65943U 98067XQ  25344.27717868  .00100705  00000+0  12589-2 0  9990",
        "tle_line2": "2 65943  51.6298 152.3458 0005250 191.2269 168.8608 15.59004320  9476"
      },
      "geometry": {
        "type": "Point",
        "coordinates": [
          -139.4623818348311,
          50.06516447956502
        ]
      }
    },
    {
      "type": "Feature",
      "properties": {
        "norad_id": 66052,
        "name": "HRC MONOBLOCK CAMERA",
        "group": "stations",
        "lat": 51.0389386476238,
        "lon": -107.62663993657829,
        "alt_km": 397.7793266670251,
        "timestamp": "2025-12-10T20:49:51.360714+00:00",
        "meta_object_name": "HRC MONOBLOCK CAMERA",
        "meta_object_id": "1998-067XR",
        "meta_epoch": "2025-12-10T01:53:33.064224",
        "meta_mean_motion": 15.53848796,
        "meta_eccentricity": 0.00036764,
        "meta_inclination": 51.6294,
        "meta_ra_of_asc_node": 154.7721,
        "meta_arg_of_pericenter": 173.0963,
        "meta_mean_anomaly": 187.0078,
        "meta_ephemeris_type": 0,
        "meta_classification_type": "U",
        "meta_norad_cat_id": 66052,
        "meta_element_set_no": 999,
        "meta_rev_at_epoch": 842,
        "meta_bstar": 0.00070942813,
        "meta_mean_motion_dot": 0.00046287,
        "meta_mean_motion_ddot": 0,
        "tle_line1": "1 66052U 98067XR  25344.07885491  .00046287  00000+0  70943-3 0  9991",
        "tle_line2": "2 66052  51.6294 154.7721 0003676 173.0963 187.0078 15.53848796  8427"
      },
      "geometry": {
        "type": "Point",
        "coordinates": [
          -107.62663993657829,
          51.0389386476238
        ]
      }
    }
  ]
}